{
  "type": "FeatureCollection",
  "features": [
    {
      "type": "Feature",
      "properties": {
        "norad_id": 66615,
        "name": "STARLINK-35988",
        "group": "last-30-days",
        "lat": 21.529184957365725,
        "lon": 2.187117741124835,
        "alt_km": 406.25009808408413,
        "timestamp": "2025-12-10T05:46:12.576196+00:00",
        "meta_object_name": "STARLINK-35988",
        "meta_object_id": "2025-270AD",
        "meta_epoch": "2025-12-09T20:00:01.999008",
        "meta_mean_motion": 15.54437772,
        "meta_eccentricity": 0.0001586,
        "meta_inclination": 42.9994,
        "meta_ra_of_asc_node": 209.6261,
        "meta_arg_of_pericenter": 262.6782,
        "meta_mean_anomaly": 125.397,
        "meta_ephemeris_type": 0,
        "meta_classification_type": "U",
        "meta_norad_cat_id": 66615,
        "meta_element_set_no": 999,
        "meta_rev_at_epoch": 377,
        "meta_bstar": -0.034807,
        "meta_mean_motion_dot": -0.02088902,
        "meta_mean_motion_ddot": 0,
        "tle_line1": "1 66615U 25270AD  25343.83335647 -.02088902  00000+0 -34807-1 0  9999",
        "tle_line2": "2 66615  42.9994 209.6261 0001586 262.6782 125.3970 15.54437772  3771"
      },
      "geometry": {
        "type": "Point",
        "coordinates": [
          2.187117741124835,
          21.529184957365725
        ]
      }
    },
    {
      "type": "Feature",
      "properties": {
        "norad_id": 66616,
        "name": "STARLINK-35391",
        "group": "last-30-days",
        "lat": 19.12651938698687,
        "lon": 5.374804769069934,
        "alt_km": 406.70828113155494,
        "timestamp": "2025-12-10T05:46:12.576206+00:00",
        "meta_object_name": "STARLINK-35391",
        "meta_object_id": "2025-270AE",
        "meta_epoch": "2025-12-09T20:00:01.999008",
        "meta_mean_motion": 15.54441616,
        "meta_eccentricity": 0.0001457,
        "meta_inclination": 42.9997,
        "meta_ra_of_asc_node": 209.6162,
        "meta_arg_of_pericenter": 272.0546,
        "meta_mean_anomaly": 119.8529,
        "meta_ephemeris_type": 0,
        "meta_classification_type": "U",
        "meta_norad_cat_id": 66616,
        "meta_element_set_no": 999,
        "meta_rev_at_epoch": 404,
        "meta_bstar": -0.034842,
        "meta_mean_motion_dot": -0.02090972,
        "meta_mean_motion_ddot": 0,
        "tle_line1": "1 66616U 25270AE  25343.83335647 -.02090972  00000+0 -34842-1 0  9999",
        "tle_line2": "2 66616  42.9997 209.6162 0001457 272.0546 119.8529 15.54441616  4046"
      },
      "geometry": {
        "type": "Point",
        "coordinates": [
          5.374804769069934,
          19.12651938698687
        ]
      }
    },
    {
      "type": "Feature",
      "properties": {
        "norad_id": 66617,
        "name": "STARLINK-35940",
        "group": "last-30-days",
        "lat": 40.009955653866555,
        "lon": -19.71006179613818,
        "alt_km": 379.4222698064623,
        "timestamp": "2025-12-10T05:46:12.576218+00:00",
        "meta_object_name": "STARLINK-35940",
        "meta_object_id": "2025-271A",
        "meta_epoch": "2025-12-09T20:00:01.999008",
        "meta_mean_motion": 15.62629313,
        "meta_eccentricity": 7.3e-05,
        "meta_inclination": 53.1593,
        "meta_ra_of_asc_node": 201.2743,
        "meta_arg_of_pericenter": 97.8165,
        "meta_mean_anomaly": 258.7416,
        "meta_ephemeris_type": 0,
        "meta_classification_type": "U",
        "meta_norad_cat_id": 66617,
        "meta_element_set_no": 999,
        "meta_rev_at_epoch": 377,
        "meta_bstar": -0.025367,
        "meta_mean_motion_dot": -0.02027475,
        "meta_mean_motion_ddot": 0,
        "tle_line1": "1 66617U 25271A   25343.83335647 -.02027475  00000+0 -25367-1 0  9991",
        "tle_line2": "2 66617  53.1593 201.2743 0000730  97.8165 258.7416 15.62629313  3777"
      },
      "geometry": {
        "type": "Point",
        "coordinates": [
          -19.71006179613818,
          40.009955653866555
        ]
      }
    },
    {
      "type": "Feature",
      "properties": {
        "norad_id": 66618,
        "name": "STARLINK-35970",
        "group": "last-30-days",
        "lat": 0.07650230798787798,
        "lon": 19.12069257123452,
        "alt_km": 386.09567892714585,
        "timestamp": "2025-12-10T05:46:12.576228+00:00",
        "meta_object_name": "STARLINK-35970",
        "meta_object_id": "2025-271B",
        "meta_epoch": "2025-12-09T20:00:01.999008",
        "meta_mean_motion": 15.62625888,
        "meta_eccentricity": 8.17e-05,
        "meta_inclination": 53.159,
        "meta_ra_of_asc_node": 201.1615,
        "meta_arg_of_pericenter": 96.9646,
        "meta_mean_anomaly": 312.9175,
        "meta_ephemeris_type": 0,
        "meta_classification_type": "U",
        "meta_norad_cat_id": 66618,
        "meta_element_set_no": 999,
        "meta_rev_at_epoch": 377,
        "meta_bstar": -0.025321,
        "meta_mean_motion_dot": -0.02024092,
        "meta_mean_motion_ddot": 0,
        "tle_line1": "1 66618U 25271B   25343.83335647 -.02024092  00000+0 -25321-1 0  9994",
        "tle_line2": "2 66618  53.1590 201.1615 0000817  96.9646 312.9175 15.62625888  3770"
      },
      "geometry": {
        "type": "Point",
        "coordinates": [
          19.12069257123452,
          0.07650230798787798
        ]
      }
    },
    {
      "type": "Feature",
      "properties": {
        "norad_id": 66619,
        "name": "STARLINK-35951",
        "group": "last-30-days",
        "lat": 34.99589792445594,
        "lon": -12.38776176537109,
        "alt_km": 380.24302041298415,
        "timestamp": "2025-12-10T05:46:12.576241+00:00",
        "meta_object_name": "STARLINK-35951",
        "meta_object_id": "2025-271C",
        "meta_epoch": "2025-12-09T20:00:01.999008",
        "meta_mean_motion": 15.6263024,
        "meta_eccentricity": 7.42e-05,
        "meta_inclination": 53.1593,
        "meta_ra_of_asc_node": 201.257,
        "meta_arg_of_pericenter": 99.138,
        "meta_mean_anomaly": 265.0883,
        "meta_ephemeris_type": 0,
        "meta_classification_type": "U",
        "meta_norad_cat_id": 66619,
        "meta_element_set_no": 999,
        "meta_rev_at_epoch": 377,
        "meta_bstar": -0.025407,
        "meta_mean_motion_dot": -0.0203033,
        "meta_mean_motion_ddot": 0,
        "tle_line1": "1 66619U 25271C   25343.83335647 -.02030330  00000+0 -25407-1 0  9992",
        "tle_line2": "2 66619  53.1593 201.2570 0000742  99.1380 265.0883 15.62630240  3774"
      },
      "geometry": {
        "type": "Point",
        "coordinates": [
          -12.38776176537109,
          34.99589792445594
        ]
      }
    },
    {
      "type": "Feature",
      "properties": {
        "norad_id": 66620,
        "name": "STARLINK-35936",
        "group": "last-30-days",
        "lat": 38.799922816710186,
        "lon": -17.784674430933013,
        "alt_km": 379.64573577323335,
        "timestamp": "2025-12-10T05:46:12.576252+00:00",
        "meta_object_name": "STARLINK-35936",
        "meta_object_id": "2025-271D",
        "meta_epoch": "2025-12-09T20:00:01.999008",
        "meta_mean_motion": 15.62629386,
        "meta_eccentricity": 6.98e-05,
        "meta_inclination": 53.1593,
        "meta_ra_of_asc_node": 201.2701,
        "meta_arg_of_pericenter": 96.9207,
        "meta_mean_anomaly": 261.5553,
        "meta_ephemeris_type": 0,
        "meta_classification_type": "U",
        "meta_norad_cat_id": 66620,
        "meta_element_set_no": 999,
        "meta_rev_at_epoch": 377,
        "meta_bstar": -0.025385,
        "meta_mean_motion_dot": -0.0202869,
        "meta_mean_motion_ddot": 0,
        "tle_line1": "1 66620U 25271D   25343.83335647 -.02028690  00000+0 -25385-1 0  9995",
        "tle_line2": "2 66620  53.1593 201.2701 0000698  96.9207 261.5553 15.62629386  3779"
      },
      "geometry": {
        "type": "Point",
        "coordinates": [
          -17.784674430933013,
          38.799922816710186
        ]
      }
    },
    {
      "type": "Feature",
      "properties": {
        "norad_id": 66621,
        "name": "STARLINK-35847",
        "group": "last-30-days",
        "lat": -2.7554855696157734,
        "lon": 21.23830834614038,
        "alt_km": 386.4586700473392,
        "timestamp": "2025-12-10T05:46:12.576261+00:00",
        "meta_object_name": "STARLINK-35847",
        "meta_object_id": "2025-271E",
        "meta_epoch": "2025-12-09T20:00:01.999008",
        "meta_mean_motion": 15.62629638,
        "meta_eccentricity": 8.83e-05,
        "meta_inclination": 53.1597,
        "meta_ra_of_asc_node": 201.1538,
        "meta_arg_of_pericenter": 100.611,
        "meta_mean_anomaly": 312.8101,
        "meta_ephemeris_type": 0,
        "meta_classification_type": "U",
        "meta_norad_cat_id": 66621,
        "meta_element_set_no": 999,
        "meta_rev_at_epoch": 377,
        "meta_bstar": -0.025419,
        "meta_mean_motion_dot": -0.02031236,
        "meta_mean_motion_ddot": 0,
        "tle_line1": "1 66621U 25271E   25343.83335647 -.02031236  00000+0 -25419-1 0  9994",
        "tle_line2": "2 66621  53.1597 201.1538 0000883 100.6110 312.8101 15.62629638  3772"
      },
      "geometry": {
        "type": "Point",
        "coordinates": [
          21.23830834614038,
          -2.7554855696157734
        ]
      }
    }
  ]
}